{"type": "FeatureCollection", "features": [ {"type": "Feature", "properties": {"norad_id": 43648, "name": "BEIDOU-3 M15 (C34)", "group": "gnss", "lat": 2.077115996603984, "lon": 124.72724466751052, "alt_km": 21538.11134889488, "timestamp": "2025-12-20T14:38:02.213857+00:00", "meta": {"OBJECT_NAME": "BEIDOU-3 M15 (C34)", "OBJECT_ID": "2018-078B", "EPOCH": "2025-12-19T06:30:41.361984", "MEAN_MOTION": 1.86232317, "ECCENTRICITY": 0.0003969, "INCLINATION": 54.2518, "RA_OF_ASC_NODE": 306.2933, "ARG_OF_PERICENTER": 20.1104, "MEAN_ANOMALY": 339.8954, "EPHEMERIS_TYPE": 0, "CLASSIFICATION_TYPE": "U", "NORAD_CAT_ID": 43648, "ELEMENT_SET_NO": 999, "REV_AT_EPOCH": 4882, "BSTAR": 0, "MEAN_MOTION_DOT": -7.6e-07, "MEAN_MOTION_DDOT": 0}, "tle": {"line1": "1 43648U 18078B   25353.27131206 -.00000076  00000+0  00000+0 0  9991", "line2": "2 43648  54.2518 306.2933 0003969  20.1104 339.8954  1.86232317 48829"}}, "geometry": {"type": "Point", "coordinates": [124.72724466751052, 2.077115996603984]}}, {"type": "Feature", "properties": {"norad_id": 43683, "name": "BEIDOU-3 G1 (C59)", "group": "gnss", "lat": -0.5975723881689966, "lon": 88.96044456627594, "alt_km": 35783.79072493109, "timestamp": "2025-12-20T14:38:02.213871+00:00", "meta": {"OBJECT_NAME": "BEIDOU-3 G1 (C59)", "OBJECT_ID": "2018-085A", "EPOCH": "2025-12-20T07:02:51.639072", "MEAN_MOTION": 1.00268595, "ECCENTRICITY": 0.00015939, "INCLINATION": 2.6258, "RA_OF_ASC_NODE": 102.7445, "ARG_OF_PERICENTER": 46.9142, "MEAN_ANOMALY": 185.2079, "EPHEMERIS_TYPE": 0, "CLASSIFICATION_TYPE": "U", "NORAD_CAT_ID": 43683, "ELEMENT_SET_NO": 999, "REV_AT_EPOCH": 2626, "BSTAR": 0, "MEAN_MOTION_DOT": -2.56e-06, "MEAN_MOTION_DDOT": 0}, "tle": {"line1": "1 43683U 18085A   25354.29365323 -.00000256  00000+0  00000+0 0  9990", "line2": "2 43683   2.6258 102.7445 0001593  46.9142 185.2079  1.00268595 26260"}}, "geometry": {"type": "Point", "coordinates": [88.96044456627594, -0.5975723881689966]}}, {"type": "Feature", "properties": {"norad_id": 43687, "name": "COSMOS 2529 (757)", "group": "gnss", "lat": 12.79412505503962, "lon": 12.343473395527162, "alt_km": 19128.046141413724, "timestamp": "2025-12-20T14:38:02.213884+00:00", "meta": {"OBJECT_NAME": "COSMOS 2529 (757)", "OBJECT_ID": "2018-086A", "EPOCH": "2025-12-18T12:23:46.661856", "MEAN_MOTION": 2.13102105, "ECCENTRICITY": 0.00070461, "INCLINATION": 64.2922, "RA_OF_ASC_NODE": 198.6932, "ARG_OF_PERICENTER": 253.6593, "MEAN_ANOMALY": 106.345, "EPHEMERIS_TYPE": 0, "CLASSIFICATION_TYPE": "U", "NORAD_CAT_ID": 43687, "ELEMENT_SET_NO": 999, "REV_AT_EPOCH": 5543, "BSTAR": 0, "MEAN_MOTION_DOT": 1.09e-06, "MEAN_MOTION_DDOT": 0}, "tle": {"line1": "1 43687U 18086A   25352.51651229  .00000109  00000+0  00000+0 0  9997", "line2": "2 43687  64.2922 198.6932 0007046 253.6593 106.3450  2.13102105 55434"}}, "geometry": {"type": "Point", "coordinates": [12.343473395527162, 12.79412505503962]}}, {"type": "Feature", "properties": {"norad_id": 43706, "name": "BEIDOU-3 M17 (C36)", "group": "gnss", "lat": 50.02666960566852, "lon": -112.07053597198211, "alt_km": 21531.615259886166, "timestamp": "2025-12-20T14:38:02.213895+00:00", "meta": {"OBJECT_NAME": "BEIDOU-3 M17 (C36)", "OBJECT_ID": "2018-093A", "EPOCH": "2025-12-20T05:36:59.861952", "MEAN_MOTION": 1.86228486, "ECCENTRICITY": 0.000606, "INCLINATION": 54.1746, "RA_OF_ASC_NODE": 188.3673, "ARG_OF_PERICENTER": 307.8165, "MEAN_ANOMALY": 231.273, "EPHEMERIS_TYPE": 0, "CLASSIFICATION_TYPE": "U", "NORAD_CAT_ID": 43706, "ELEMENT_SET_NO": 999, "REV_AT_EPOCH": 4820, "BSTAR": 0, "MEAN_MOTION_DOT": 9.8e-07, "MEAN_MOTION_DDOT": 0}, "tle": {"line1": "1 43706U 18093A   25354.23402618  .00000098  00000+0  00000+0 0  9991", "line2": "2 43706  54.1746 188.3673 0006060 307.8165 231.2730  1.86228486 48204"}}, "geometry": {"type": "Point", "coordinates": [-112.07053597198211, 50.02666960566852]}}, {"type": "Feature", "properties": {"norad_id": 43707, "name": "BEIDOU-3 M18 (C37)", "group": "gnss", "lat": 13.038329747672616, "lon": -1.2840947197990484, "alt_km": 21544.273582776677, "timestamp": "2025-12-20T14:38:02.213906+00:00", "meta": {"OBJECT_NAME": "BEIDOU-3 M18 (C37)", "OBJECT_ID": "2018-093B", "EPOCH": "2025-12-19T19:53:02.312736", "MEAN_MOTION": 1.86226834, "ECCENTRICITY": 0.00062874, "INCLINATION": 54.1737, "RA_OF_ASC_NODE": 188.373, "ARG_OF_PERICENTER": 353.4895, "MEAN_ANOMALY": 6.5612, "EPHEMERIS_TYPE": 0, "CLASSIFICATION_TYPE": "U", "NORAD_CAT_ID": 43707, "ELEMENT_SET_NO": 999, "REV_AT_EPOCH": 4819, "BSTAR": 0, "MEAN_MOTION_DOT": 1e-06, "MEAN_MOTION_DDOT": 0}, "tle": {"line1": "1 43707U 18093B   25353.82849899  .00000100  00000+0  00000+0 0  9996", "line2": "2 43707  54.1737 188.3730 0006287 353.4895   6.5612  1.86226834 48192"}}, "geometry": {"type": "Point", "coordinates": [-1.2840947197990484, 13.038329747672616]}}, {"type": "Feature", "properties": {"norad_id": 43873, "name": "GPS BIII-1  (PRN 04)", "group": "gnss", "lat": 48.59185197367015, "lon": 150.1928571872768, "alt_km": 20241.148528721642, "timestamp": "2025-12-20T14:38:02.213918+00:00", "meta": {"OBJECT_NAME": "GPS BIII-1  (PRN 04)", "OBJECT_ID": "2018-109A", "EPOCH": "2025-12-20T00:28:38.598816", "MEAN_MOTION": 2.00553953, "ECCENTRICITY": 0.00375628, "INCLINATION": 55.5707, "RA_OF_ASC_NODE": 99.2599, "ARG_OF_PERICENTER": 195.3516, "MEAN_ANOMALY": 164.4447, "EPHEMERIS_TYPE": 0, "CLASSIFICATION_TYPE": "U", "NORAD_CAT_ID": 43873, "ELEMENT_SET_NO": 999, "REV_AT_EPOCH": 5147, "BSTAR": 0, "MEAN_MOTION_DOT": -1.8e-07, "MEAN_MOTION_DDOT": 0}, "tle": {"line1": "1 43873U 18109A   25354.01989119 -.00000018  00000+0  00000+0 0  9999", "line2": "2 43873  55.5707  99.2599 0037562 195.3516 164.4447  2.00553953 51471"}}, "geometry": {"type": "Point", "coordinates": [150.1928571872768, 48.59185197367015]}}, {"type": "Feature", "properties": {"norad_id": 44231, "name": "BEIDOU-2 G8 (C01)", "group": "gnss", "lat": 0.5678294582575496, "lon": 93.46750137145875, "alt_km": 35802.172649374865, "timestamp": "2025-12-20T14:38:02.213929+00:00", "meta": {"OBJECT_NAME": "BEIDOU-2 G8 (C01)", "OBJECT_ID": "2019-027A", "EPOCH": "2025-12-19T12:14:23.449632", "MEAN_MOTION": 1.00276563, "ECCENTRICITY": 0.0008196, "INCLINATION": 1.6785, "RA_OF_ASC_NODE": 74.7229, "ARG_OF_PERICENTER": 258.5641, "MEAN_ANOMALY": 83.1013, "EPHEMERIS_TYPE": 0, "CLASSIFICATION_TYPE": "U", "NORAD_CAT_ID": 44231, "ELEMENT_SET_NO": 999, "REV_AT_EPOCH": 2427, "BSTAR": 0, "MEAN_MOTION_DOT": -2.24e-06, "MEAN_MOTION_DDOT": 0}, "tle": {"line1": "1 44231U 19027A   25353.50999363 -.00000224  00000+0  00000+0 0  9992", "line2": "2 44231   1.6785  74.7229 0008196 258.5641  83.1013  1.00276563 24270"}}, "geometry": {"type": "Point", "coordinates": [93.46750137145875, 0.5678294582575496]}}, {"type": "Feature", "properties": {"norad_id": 44299, "name": "COSMOS 2534 (758)", "group": "gnss", "lat": -51.13086621028221, "lon": 162.04620131754103, "alt_km": 19114.27185374311, "timestamp": "2025-12-20T14:38:02.213941+00:00", "meta": {"OBJECT_NAME": "COSMOS 2534 (758)", "OBJECT_ID": "2019-030A", "EPOCH": "2025-12-18T18:30:09.690336", "MEAN_MOTION": 2.13102412, "ECCENTRICITY": 0.0008748, "INCLINATION": 64.3658, "RA_OF_ASC_NODE": 198.6898, "ARG_OF_PERICENTER": 284.2192, "MEAN_ANOMALY": 45.4012, "EPHEMERIS_TYPE": 0, "CLASSIFICATION_TYPE": "U", "NORAD_CAT_ID": 44299, "ELEMENT_SET_NO": 999, "REV_AT_EPOCH": 5107, "BSTAR": 0, "MEAN_MOTION_DOT": 1.08e-06, "MEAN_MOTION_DDOT": 0}, "tle": {"line1": "1 44299U 19030A   25352.77094549  .00000108  00000+0  00000+0 0  9990", "line2": "2 44299  64.3658 198.6898 0008748 284.2192  45.4012  2.13102412 51071"}}, "geometry": {"type": "Point", "coordinates": [162.04620131754103, -51.13086621028221]}}, {"type": "Feature", "properties": {"norad_id": 44337, "name": "BEIDOU-3 IGSO-2 (C39)", "group": "gnss", "lat": -55.13766435606719, "lon": 67.57985297193886, "alt_km": 35729.083737861656, "timestamp": "2025-12-20T14:38:02.213952+00:00", "meta": {"OBJECT_NAME": "BEIDOU-3 IGSO-2 (C39)", "OBJECT_ID": "2019-035A", "EPOCH": "2025-12-19T20:41:01.781088", "MEAN_MOTION": 1.00269267, "ECCENTRICITY": 0.0037549, "INCLINATION": 55.228, "RA_OF_ASC_NODE": 160.4388, "ARG_OF_PERICENTER": 202.2301, "MEAN_ANOMALY": 155.7105, "EPHEMERIS_TYPE": 0, "CLASSIFICATION_TYPE": "U", "NORAD_CAT_ID": 44337, "ELEMENT_SET_NO": 999, "REV_AT_EPOCH": 2386, "BSTAR": 0, "MEAN_MOTION_DOT": -6.2e-07, "MEAN_MOTION_DDOT": 0}, "tle": {"line1": "1 44337U 19035A   25353.86182617 -.00000062  00000+0  00000+0 0  9993", "line2": "2 44337  55.2280 160.4388 0037549 202.2301 155.7105  1.00269267 23869"}}, "geometry": {"type": "Point", "coordinates": [67.57985297193886, -55.13766435606719]}}, {"type": "Feature", "properties": {"norad_id": 44506, "name": "GPS BIII-2  (PRN 18)", "group": "gnss", "lat": -29.412349105282033, "lon": -44.385068650727455, "alt_km": 20272.837235349503, "timestamp": "2025-12-20T14:38:02.213968+00:00", "meta": {"OBJECT_NAME": "GPS BIII-2  (PRN 18)", "OBJECT_ID": "2019-056A", "EPOCH": "2025-12-20T05:10:31.696032", "MEAN_MOTION": 2.00566646, "ECCENTRICITY": 0.00577304, "INCLINATION": 55.7188, "RA_OF_ASC_NODE": 338.2562, "ARG_OF_PERICENTER": 198.5398, "MEAN_ANOMALY": 199.8804, "EPHEMERIS_TYPE": 0, "CLASSIFICATION_TYPE": "U", "NORAD_CAT_ID": 44506, "ELEMENT_SET_NO": 999, "REV_AT_EPOCH": 4648, "BSTAR": 0, "MEAN_MOTION_DOT": -7.7e-07, "MEAN_MOTION_DDOT": 0}, "tle": {"line1": "1 44506U 19056A   25354.21564463 -.00000077  00000+0  00000+0 0  9993", "line2": "2 44506  55.7188 338.2562 0057730 198.5398 199.8804  2.00566646 46485"}}, "geometry": {"type": "Point", "coordinates": [-44.385068650727455, -29.412349105282033]}}]}